COMMENT,ORIGINATOR,NORAD_CAT_ID,OBJECT_NAME,OBJECT_TYPE,CLASSIFICATION_TYPE,INTLDES,EPOCH,EPOCH_MICROSECONDS,MEAN_MOTION,ECCENTRICITY,INCLINATION,RA_OF_ASC_NODE,ARG_OF_PERICENTER,MEAN_ANOMALY,EPHEMERIS_TYPE,ELEMENT_SET_NO,REV_AT_EPOCH,BSTAR,MEAN_MOTION_DOT,MEAN_MOTION_DDOT,FILE,TLE_LINE0,TLE_LINE1,TLE_LINE2,OBJECT_ID,OBJECT_NUMBER,SEMIMAJOR_AXIS,PERIOD,APOGEE,PERIGEE,DECAYED
"GENERATED VIA SPACETRACK.ORG API","18 SPCS","48897","SPACEBEE-109","PAYLOAD","U","21059U","2023-05-22 09:05:10","347936","15.31053134","0.0005914","97.5946","279.1281","5.7119","354.4188","0","999","10546","0.0011501","0.0003456","0","3914693","0 SPACEBEE-109","1 48897U 21059U   23142.37859199  .00034560  00000-0  11501-2 0  9994","2 48897  97.5946 279.1281 0005914   5.7119 354.4188 15.31053134105465","2021-059U","48897","6850.806","94.053","476.723","468.619","0"
"GENERATED VIA SPACETRACK.ORG API","18 SPCS","48897","SPACEBEE-109","PAYLOAD","U","21059U","2023-05-23 08:36:50","593824","15.31115164","0.0005868","97.5947","280.1315","1.8271","358.299","0","999","10561","0.0010898","0.00032799","0","3915365","0 SPACEBEE-109","1 48897U 21059U   23143.35891891  .00032799  00000-0  10898-2 0  9998","2 48897  97.5947 280.1315 0005868   1.8271 358.2990 15.31115164105612","2021-059U","48897","6850.621","94.049","476.506","468.466","0"
"GENERATED VIA SPACETRACK.ORG API","18 SPCS","48897","SPACEBEE-109","PAYLOAD","U","21059U","2023-05-23 14:53:16","786752","15.31128094","0.0005856","97.5945","280.3995","0.9031","359.2219","0","999","10565","0.00099272","0.0002987","0","3915766","0 SPACEBEE-109","1 48897U 21059U   23143.62033318  .00029870  00000-0  99272-3 0  9990","2 48897  97.5945 280.3995 0005856   0.9031 359.2219 15.31128094105652","2021-059U","48897","6850.582","94.048","476.459","468.436","0"
"GENERATED VIA SPACETRACK.ORG API","18 SPCS","48897","SPACEBEE-109","PAYLOAD","U","21059U","2023-05-24 08:08:27","658464","15.31168484","0.0005852","97.5945","281.1354","357.3108","2.81","0","999","10576","0.00092143","0.00027746","0","3916182","0 SPACEBEE-109","1 48897U 21059U   23144.33920901  .00027746  00000-0  92143-3 0  9992","2 48897  97.5945 281.1354 0005852 357.3108   2.8100 15.31168484105769","2021-059U","48897","6850.462","94.046","476.336","468.318","0"
"GENERATED VIA SPACETRACK.ORG API","18 SPCS","48897","SPACEBEE-109","PAYLOAD","U","21059U","2023-05-25 21:46:56","678880","15.31255867","0.0005845","97.5949","282.742","351.1993","8.9144","0","999","10600","0.00088155","0.0002661","0","3917122","0 SPACEBEE-109","1 48897U 21059U   23145.90760045  .00026610  00000-0  88155-3 0  9994","2 48897  97.5949 282.7420 0005845 351.1993   8.9144 15.31255867106005","2021-059U","48897","6850.201","94.040","476.070","468.062","0"
"GENERATED VIA SPACETRACK.ORG API","18 SPCS","48897","SPACEBEE-109","PAYLOAD","U","21059U","2023-05-25 21:46:56","678880","15.31255867","0.0005845","97.5949","282.742","351.1993","8.9144","0","999","10600","0.00088155","0.0002661","0","3917344","0 SPACEBEE-109","1 48897U 21059U   23145.90760045  .00026610  00000-0  88155-3 0  9994","2 48897  97.5949 282.7420 0005845 351.1993   8.9144 15.31255867106005","2021-059U","48897","6850.201","94.040","476.070","468.062","0"
"GENERATED VIA SPACETRACK.ORG API","18 SPCS","48897","SPACEBEE-109","PAYLOAD","U","21059U","2023-05-26 08:45:38","715552","15.31278656","0.0005854","97.5948","283.2105","349.3488","10.7627","0","999","10607","0.00082958","0.00025049","0","3917630","0 SPACEBEE-109","1 48897U 21059U   23146.36503143  .00025049  00000-0  82958-3 0  9999","2 48897  97.5948 283.2105 0005854 349.3488  10.7627 15.31278656106073","2021-059U","48897","6850.133","94.039","476.008","467.988","0"
"GENERATED VIA SPACETRACK.ORG API","18 SPCS","48897","SPACEBEE-109","PAYLOAD","U","21059U","2023-05-26 21:18:26","57376","15.31303302","0.0005803","97.5948","283.7457","346.963","13.146","0","999","10615","0.00075737","0.00022873","0","3917850","0 SPACEBEE-109","1 48897U 21059U   23146.88780159  .00022873  00000-0  75737-3 0  9999","2 48897  97.5948 283.7457 0005803 346.9630  13.1460 15.31303302106152","2021-059U","48897","6850.060","94.038","475.900","467.950","0"
"GENERATED VIA SPACETRACK.ORG API","18 SPCS","48897","SPACEBEE-109","PAYLOAD","U","21059U","2023-05-26 22:52:31","933632","15.31305995","0.0005807","97.5948","283.8127","346.7897","13.3191","0","999","10616","0.00076494","0.00023105","0","3918064","0 SPACEBEE-109","1 48897U 21059U   23146.95314738  .00023105  00000-0  76494-3 0  9993","2 48897  97.5948 283.8127 0005807 346.7897  13.3191 15.31305995106168","2021-059U","48897","6850.052","94.037","475.895","467.939","0"
"GENERATED VIA SPACETRACK.ORG API","18 SPCS","48897","SPACEBEE-109","PAYLOAD","U","21059U","2023-05-27 22:23:58","620768","15.31350901","0.0005866","97.5947","284.8163","342.752","17.3521","0","999","10631","0.0007506","0.00022701","0","3918755","0 SPACEBEE-109","1 48897U 21059U   23147.93331737  .00022701  00000-0  75060-3 0  9999","2 48897  97.5947 284.8163 0005866 342.7520  17.3521 15.31350901106317","2021-059U","48897","6849.918","94.035","475.801","467.765","0"
"GENERATED VIA SPACETRACK.ORG API","18 SPCS","48897","SPACEBEE-109","PAYLOAD","U","21059U","2023-05-28 01:32:10","896","15.3135658","0.000588","97.5947","284.9503","342.3701","17.7335","0","999","10633","0.00077574","0.0002347","0","3918851","0 SPACEBEE-109","1 48897U 21059U   23148.06400464  .00023470  00000-0  77574-3 0  9994","2 48897  97.5947 284.9503 0005880 342.3701  17.7335 15.31356580106337","2021-059U","48897","6849.901","94.034","475.794","467.738","0"
"GENERATED VIA SPACETRACK.ORG API","18 SPCS","48897","SPACEBEE-109","PAYLOAD","U","21059U","2023-05-28 04:40:21","325728","15.31364242","0.0005887","97.5947","285.0842","341.818","18.2849","0","999","10635","0.00084905","0.0002571","0","3919252","0 SPACEBEE-109","1 48897U 21059U   23148.19469127  .00025710  00000-0  84905-3 0  9994","2 48897  97.5947 285.0842 0005887 341.8180  18.2849 15.31364242106359","2021-059U","48897","6849.878","94.034","475.776","467.711","0"
"GENERATED VIA SPACETRACK.ORG API","18 SPCS","48897","SPACEBEE-109","PAYLOAD","U","21059U","2023-05-28 20:21:17","81568","15.31402954","0.0005766","97.5946","285.7533","338.8053","21.2948","0","999","10645","0.00093849","0.0002847","0","3919546","0 SPACEBEE-109","1 48897U 21059U   23148.84811437  .00028470  00000-0  93849-3 0  9994","2 48897  97.5946 285.7533 0005766 338.8053  21.2948 15.31402954106451","2021-059U","48897","6849.763","94.031","475.577","467.678","0"
"GENERATED VIA SPACETRACK.ORG API","18 SPCS","48897","SPACEBEE-109","PAYLOAD","U","21059U","2023-05-29 02:37:39","43488","15.31415723","0.0005722","97.5945","286.021","338.034","22.0655","0","999","10649","0.0009431","0.00028622","0","3919657","0 SPACEBEE-109","1 48897U 21059U   23149.10947967  .00028622  00000-0  94310-3 0  9995","2 48897  97.5945 286.0210 0005722 338.0340  22.0655 15.31415723106495","2021-059U","48897","6849.725","94.031","475.509","467.670","0"
"GENERATED VIA SPACETRACK.ORG API","18 SPCS","48897","SPACEBEE-109","PAYLOAD","U","21059U","2023-05-29 08:54:00","776448","15.31428642","0.000573","97.5945","286.2887","336.9827","23.1156","0","999","10653","0.00083086","0.00025205","0","3920065","0 SPACEBEE-109","1 48897U 21059U   23149.37084232  .00025205  00000-0  83086-3 0  9993","2 48897  97.5945 286.2887 0005730 336.9827  23.1156 15.31428642106530","2021-059U","48897","6849.686","94.030","475.476","467.626","0"
"GENERATED VIA SPACETRACK.ORG API","18 SPCS","48897","SPACEBEE-109","PAYLOAD","U","21059U","2023-05-29 21:26:43","703232","15.31454577","0.0005682","97.5945","286.8239","334.5352","25.5608","0","999","10661","0.00080649","0.00024481","0","3920354","0 SPACEBEE-109","1 48897U 21059U   23149.89356138  .00024481  00000-0  80649-3 0  9994","2 48897  97.5945 286.8239 0005682 334.5352  25.5608 15.31454577106613","2021-059U","48897","6849.609","94.028","475.366","467.582","0"
"GENERATED VIA SPACETRACK.ORG API","18 SPCS","48897","SPACEBEE-109","PAYLOAD","U","21059U","2023-05-30 08:25:20","636256","15.31475875","0.0005712","97.5944","287.2926","332.714","27.38","0","999","10668","0.00078524","0.00023847","0","3920774","0 SPACEBEE-109","1 48897U 21059U   23150.35093329  .00023847  00000-0  78524-3 0  9991","2 48897  97.5944 287.2926 0005712 332.7140  27.3800 15.31475875106684","2021-059U","48897","6849.545","94.027","475.323","467.498","0"
"GENERATED VIA SPACETRACK.ORG API","18 SPCS","48897","SPACEBEE-109","PAYLOAD","U","21059U","2023-05-30 08:25:20","636256","15.31475875","0.0005712","97.5944","287.2926","332.714","27.38","0","999","10668","0.00078524","0.00023847","0","3920920","0 SPACEBEE-109","1 48897U 21059U   23150.35093329  .00023847  00000-0  78524-3 0  9991","2 48897  97.5944 287.2926 0005712 332.7140  27.3800 15.31475875106684","2021-059U","48897","6849.545","94.027","475.323","467.498","0"
"GENERATED VIA SPACETRACK.ORG API","18 SPCS","48897","SPACEBEE-109","PAYLOAD","U","21059U","2023-05-31 07:56:37","683744","15.31531179","0.0005721","97.5944","288.2964","328.7851","31.3049","0","999","10683","0.0009279","0.0002826","0","3921767","0 SPACEBEE-109","1 48897U 21059U   23151.33099171  .00028260  00000-0  92790-3 0  9996","2 48897  97.5944 288.2964 0005721 328.7851  31.3049 15.31531179106838","2021-059U","48897","6849.380","94.024","475.164","467.327","0"
"GENERATED VIA SPACETRACK.ORG API","18 SPCS","48897","SPACEBEE-109","PAYLOAD","U","21059U","2023-05-31 15:47:02","664672","15.3155143","0.0005707","97.5945","288.6305","327.3588","32.7299","0","999","10688","0.00098877","0.00030145","0","3921871","0 SPACEBEE-109","1 48897U 21059U   23151.65766973  .00030145  00000-0  98877-3 0  9999","2 48897  97.5945 288.6305 0005707 327.3588  32.7299 15.31551430106887","2021-059U","48897","6849.320","94.022","475.094","467.276","0"
